STARLINK-36056          
1 67206U 25304Q   26005.16670139  .00084148  00000+0  13587-2 0  9991
2 67206  70.0000 341.4458 0003720 266.7959 291.3156 15.52463739  4203
STARLINK-36225          
1 67207U 25304R   26005.16670139 -.00054852  00000+0 -89474-3 0  9992
2 67207  70.0004 341.4445 0003132 270.0372 290.0159 15.52528572  4237
STARLINK-36265          
1 67208U 25304S   26005.16670139  .00113168  00000+0  18193-2 0  9996
2 67208  70.0003 341.4407 0003407 264.8350 297.1045 15.52469652  4232
STARLINK-36226          
1 67209U 25304T   26005.16670139 -.00010216  00000+0 -16354-3 0  9997
2 67209  70.0004 341.4379 0003572 265.8835 297.9741 15.52517884  4236
STARLINK-36173          
1 67210U 25304U   26005.16670139 -.00045849  00000+0 -74672-3 0  9996
2 67210  70.0002 341.4376 0003118 271.6849 294.1148 15.52523613  4236
STARLINK-36280          
1 67211U 25304V   26005.16670139 -.00058348  00000+0 -95229-3 0  9996
2 67211  70.0000 341.4354 0003279 272.6559 295.0628 15.52529836  4234
STARLINK-36213          
1 67212U 25304W   26005.16670139 -.00058834  00000+0 -96032-3 0  9990
2 67212  70.0003 341.4330 0003107 271.9598 297.6761 15.52529926  4233
STARLINK-36199          
1 67213U 25304X   26005.16670139 -.00052626  00000+0 -85811-3 0  9997
2 67213  69.9999 341.4310 0003041 267.8401 303.7083 15.52528092  4236
STARLINK-36203          
1 67214U 25304Y   26005.16670139  .00074367  00000+0  12023-2 0  9996
2 67214  70.0001 341.4280 0003606 262.7116 310.7202 15.52470131  4235
STARLINK-36221          
1 67215U 25304Z   26005.16670139  .00077486  00000+0  12522-2 0  9996
2 67215  70.0002 341.4256 0003554 263.4449 311.9000 15.52469167  4235
STARLINK-36212          
1 67216U 25304AA  26005.16670139 -.00065777  00000+0 -10745-2 0  9994
2 67216  70.0004 341.4228 0003118 273.0114 304.2800 15.52539329  4230
STARLINK-36216          
1 67217U 25304AB  26005.16670139 -.00052974  00000+0 -86377-3 0  9995
2 67217  70.0001 341.4214 0003101 271.5989 307.6131 15.52529967  4239
